QIANFAN-25              
1 61558U 24185G   25216.89522622  .00000297  00000+0  17377-3 0  9992
2 61558  88.9781  92.9052 0007614  11.4657 348.6697 14.05754101 51262
QIANFAN-26              
1 61559U 24185H   25216.89354361  .00000167  00000+0  15467-3 0  9990
2 61559  88.9796  93.7831 0007634  53.8040 306.3831 13.77721194 50793
QIANFAN-27              
1 61560U 24185J   25216.90219731  .00000404  00000+0  15993-3 0  9993
2 61560  88.9785  92.1851 0008733  11.9916 348.1484 14.27124986 51641
QIANFAN-28              
1 61561U 24185K   25216.94103994  .00000627  00000+0  24839-3 0  9997
2 61561  88.9802  92.1741 0007813  14.4228 345.7187 14.27686274 51659
QIANFAN-30              
1 61563U 24185M   25216.92892537  .00000128  00000+0  18278-3 0  9991
2 61563  88.9795  94.2172 0009453  57.2092 302.9967 13.49927990 50554
QIANFAN-31              
1 61564U 24185N   25216.92219832  .00000144  00000+0  18328-3 0  9997
2 61564  88.9778  94.2255 0009118  55.7830 304.4188 13.57905346 50540
QIANFAN-32              
1 61565U 24185P   25216.89537539  .00000043  00000+0  48118-4 0  9990
2 61565  88.9839  94.3156 0011527  77.7105 282.5336 13.50683445 50510
